{"type": "FeatureCollection", "features": [ {"type": "Feature", "properties": {"norad_id": 67080, "name": "STARLINK-36158", "group": "last-30-days", "lat": 57.16743556726623, "lon": 5.56161045377666, "alt_km": 304.4647306265533, "timestamp": "2025-12-23T07:45:08.119630+00:00", "meta": {"OBJECT_NAME": "STARLINK-36158", "OBJECT_ID": "2025-298F", "EPOCH": "2025-12-22T22:00:03.000096", "MEAN_MOTION": 15.89314883, "ECCENTRICITY": 0.00045618, "INCLINATION": 69.997, "RA_OF_ASC_NODE": 221.1083, "ARG_OF_PERICENTER": 272.4288, "MEAN_ANOMALY": 41.1116, "EPHEMERIS_TYPE": 0, "CLASSIFICATION_TYPE": "U", "NORAD_CAT_ID": 67080, "ELEMENT_SET_NO": 999, "REV_AT_EPOCH": 255, "BSTAR": -0.0058244604, "MEAN_MOTION_DOT": -0.016789, "MEAN_MOTION_DDOT": 0.00076648295}, "tle": {"line1": "1 67080U 25298F   25356.91670139 -.01678900  76648-3 -58245-2 0  9997", "line2": "2 67080  69.9970 221.1083 0004561 272.4288  41.1116 15.89314883  2555"}}, "geometry": {"type": "Point", "coordinates": [5.56161045377666, 57.16743556726623]}}, {"type": "Feature", "properties": {"norad_id": 67081, "name": "STARLINK-35864", "group": "last-30-days", "lat": 55.61188014836474, "lon": 7.772603883430278, "alt_km": 304.62107931382434, "timestamp": "2025-12-23T07:45:08.119642+00:00", "meta": {"OBJECT_NAME": "STARLINK-35864", "OBJECT_ID": "2025-298G", "EPOCH": "2025-12-22T22:00:03.000096", "MEAN_MOTION": 15.89355353, "ECCENTRICITY": 0.00043921, "INCLINATION": 69.9971, "RA_OF_ASC_NODE": 221.106, "ARG_OF_PERICENTER": 275.8592, "MEAN_ANOMALY": 39.6372, "EPHEMERIS_TYPE": 0, "CLASSIFICATION_TYPE": "U", "NORAD_CAT_ID": 67081, "ELEMENT_SET_NO": 999, "REV_AT_EPOCH": 261, "BSTAR": -0.006061448, "MEAN_MOTION_DOT": -0.01749766, "MEAN_MOTION_DDOT": 0.00082786252}, "tle": {"line1": "1 67081U 25298G   25356.91670139 -.01749766  82786-3 -60614-2 0  9990", "line2": "2 67081  69.9971 221.1060 0004392 275.8592  39.6372 15.89355353  2619"}}, "geometry": {"type": "Point", "coordinates": [7.772603883430278, 55.61188014836474]}}, {"type": "Feature", "properties": {"norad_id": 67082, "name": "STARLINK-36035", "group": "last-30-days", "lat": 53.92274012907246, "lon": 9.930253916201396, "alt_km": 304.7707354592849, "timestamp": "2025-12-23T07:45:08.119652+00:00", "meta": {"OBJECT_NAME": "STARLINK-36035", "OBJECT_ID": "2025-298H", "EPOCH": "2025-12-22T22:00:03.000096", "MEAN_MOTION": 15.89386502, "ECCENTRICITY": 0.00045186, "INCLINATION": 69.9971, "RA_OF_ASC_NODE": 221.1036, "ARG_OF_PERICENTER": 270.2528, "MEAN_ANOMALY": 47.3353, "EPHEMERIS_TYPE": 0, "CLASSIFICATION_TYPE": "U", "NORAD_CAT_ID": 67082, "ELEMENT_SET_NO": 999, "REV_AT_EPOCH": 261, "BSTAR": -0.0062651728, "MEAN_MOTION_DOT": -0.01810732, "MEAN_MOTION_DDOT": 0.00088250445}, "tle": {"line1": "1 67082U 25298H   25356.91670139 -.01810732  88250-3 -62652-2 0  9999", "line2": "2 67082  69.9971 221.1036 0004518 270.2528  47.3353 15.89386502  2616"}}, "geometry": {"type": "Point", "coordinates": [9.930253916201396, 53.92274012907246]}}, {"type": "Feature", "properties": {"norad_id": 67083, "name": "STARLINK-36170", "group": "last-30-days", "lat": 52.1526131497955, "lon": 11.966921184109731, "alt_km": 305.01847115849523, "timestamp": "2025-12-23T07:45:08.119664+00:00", "meta": {"OBJECT_NAME": "STARLINK-36170", "OBJECT_ID": "2025-298J", "EPOCH": "2025-12-22T22:00:03.000096", "MEAN_MOTION": 15.8941683, "ECCENTRICITY": 0.00045671, "INCLINATION": 69.9968, "RA_OF_ASC_NODE": 221.1008, "ARG_OF_PERICENTER": 270.1193, "MEAN_ANOMALY": 49.6121, "EPHEMERIS_TYPE": 0, "CLASSIFICATION_TYPE": "U", "NORAD_CAT_ID": 67083, "ELEMENT_SET_NO": 999, "REV_AT_EPOCH": 261, "BSTAR": -0.0064748806, "MEAN_MOTION_DOT": -0.01873439, "MEAN_MOTION_DDOT": 0.0009405125}, "tle": {"line1": "1 67083U 25298J   25356.91670139 -.01873439  94051-3 -64749-2 0  9998", "line2": "2 67083  69.9968 221.1008 0004567 270.1193  49.6121 15.89416830  2619"}}, "geometry": {"type": "Point", "coordinates": [11.966921184109731, 52.1526131497955]}}, {"type": "Feature", "properties": {"norad_id": 67084, "name": "STARLINK-36166", "group": "last-30-days", "lat": 50.45861030446954, "lon": 13.738538742968855, "alt_km": 305.2550769755444, "timestamp": "2025-12-23T07:45:08.119674+00:00", "meta": {"OBJECT_NAME": "STARLINK-36166", "OBJECT_ID": "2025-298K", "EPOCH": "2025-12-22T22:00:03.000096", "MEAN_MOTION": 15.89434932, "ECCENTRICITY": 0.00045775, "INCLINATION": 69.9968, "RA_OF_ASC_NODE": 221.0983, "ARG_OF_PERICENTER": 271.1494, "MEAN_ANOMALY": 50.5982, "EPHEMERIS_TYPE": 0, "CLASSIFICATION_TYPE": "U", "NORAD_CAT_ID": 67084, "ELEMENT_SET_NO": 999, "REV_AT_EPOCH": 255, "BSTAR": -0.0065945609, "MEAN_MOTION_DOT": -0.01909359, "MEAN_MOTION_DDOT": 0.00097459092}, "tle": {"line1": "1 67084U 25298K   25356.91670139 -.01909359  97459-3 -65946-2 0  9995", "line2": "2 67084  69.9968 221.0983 0004577 271.1494  50.5982 15.89434932  2559"}}, "geometry": {"type": "Point", "coordinates": [13.738538742968855, 50.45861030446954]}}, {"type": "Feature", "properties": {"norad_id": 67085, "name": "STARLINK-35794", "group": "last-30-days", "lat": 48.77033353827487, "lon": 15.358231817116184, "alt_km": 305.46295629073484, "timestamp": "2025-12-23T07:45:08.119684+00:00", "meta": {"OBJECT_NAME": "STARLINK-35794", "OBJECT_ID": "2025-298L", "EPOCH": "2025-12-22T22:00:03.000096", "MEAN_MOTION": 15.89451861, "ECCENTRICITY": 0.0004668, "INCLINATION": 69.9967, "RA_OF_ASC_NODE": 221.096, "ARG_OF_PERICENTER": 269.7821, "MEAN_ANOMALY": 53.9489, "EPHEMERIS_TYPE": 0, "CLASSIFICATION_TYPE": "U", "NORAD_CAT_ID": 67085, "ELEMENT_SET_NO": 999, "REV_AT_EPOCH": 261, "BSTAR": -0.0067090229, "MEAN_MOTION_DOT": -0.01943793, "MEAN_MOTION_DDOT": 0.0010078387}, "tle": {"line1": "1 67085U 25298L   25356.91670139 -.01943793  10078-2 -67090-2 0  9999", "line2": "2 67085  69.9967 221.0960 0004668 269.7821  53.9489 15.89451861  2618"}}, "geometry": {"type": "Point", "coordinates": [15.358231817116184, 48.77033353827487]}}, {"type": "Feature", "properties": {"norad_id": 67086, "name": "STARLINK-35841", "group": "last-30-days", "lat": 46.826141641533, "lon": 17.070793492032838, "alt_km": 305.6630398539237, "timestamp": "2025-12-23T07:45:08.119693+00:00", "meta": {"OBJECT_NAME": "STARLINK-35841", "OBJECT_ID": "2025-298M", "EPOCH": "2025-12-22T22:00:03.000096", "MEAN_MOTION": 15.89457439, "ECCENTRICITY": 0.00045784, "INCLINATION": 69.9968, "RA_OF_ASC_NODE": 221.0933, "ARG_OF_PERICENTER": 269.5871, "MEAN_ANOMALY": 56.4106, "EPHEMERIS_TYPE": 0, "CLASSIFICATION_TYPE": "U", "NORAD_CAT_ID": 67086, "ELEMENT_SET_NO": 999, "REV_AT_EPOCH": 261, "BSTAR": -0.0068146507, "MEAN_MOTION_DOT": -0.01974496, "MEAN_MOTION_DDOT": 0.0010378725}, "tle": {"line1": "1 67086U 25298M   25356.91670139 -.01974496  10379-2 -68147-2 0  9992", "line2": "2 67086  69.9968 221.0933 0004578 269.5871  56.4106 15.89457439  2614"}}, "geometry": {"type": "Point", "coordinates": [17.070793492032838, 46.826141641533]}}, {"type": "Feature", "properties": {"norad_id": 67087, "name": "STARLINK-35842", "group": "last-30-days", "lat": 45.27198897623356, "lon": 18.33866139882255, "alt_km": 305.93299707897495, "timestamp": "2025-12-23T07:45:08.119703+00:00", "meta": {"OBJECT_NAME": "STARLINK-35842", "OBJECT_ID": "2025-298N", "EPOCH": "2025-12-22T22:00:03.000096", "MEAN_MOTION": 15.8946798, "ECCENTRICITY": 0.00045842, "INCLINATION": 69.9968, "RA_OF_ASC_NODE": 221.0912, "ARG_OF_PERICENTER": 272.8127, "MEAN_ANOMALY": 54.9552, "EPHEMERIS_TYPE": 0, "CLASSIFICATION_TYPE": "U", "NORAD_CAT_ID": 67087, "ELEMENT_SET_NO": 999, "REV_AT_EPOCH": 261, "BSTAR": -0.0068286805, "MEAN_MOTION_DOT": -0.01979549, "MEAN_MOTION_DDOT": 0.0010429574}, "tle": {"line1": "1 67087U 25298N   25356.91670139 -.01979549  10430-2 -68287-2 0  9990", "line2": "2 67087  69.9968 221.0912 0004584 272.8127  54.9552 15.89467980  2610"}}, "geometry": {"type": "Point", "coordinates": [18.33866139882255, 45.27198897623356]}}, {"type": "Feature", "properties": {"norad_id": 67088, "name": "STARLINK-35882", "group": "last-30-days", "lat": 43.3437894476151, "lon": 19.804562106865838, "alt_km": 305.6468830011481, "timestamp": "2025-12-23T07:45:08.119713+00:00", "meta": {"OBJECT_NAME": "STARLINK-35882", "OBJECT_ID": "2025-298P", "EPOCH": "2025-12-22T22:00:03.000096", "MEAN_MOTION": 15.89490684, "ECCENTRICITY": 0.00038226, "INCLINATION": 69.9968, "RA_OF_ASC_NODE": 221.0887, "ARG_OF_PERICENTER": 268.3515, "MEAN_ANOMALY": 61.6026, "EPHEMERIS_TYPE": 0, "CLASSIFICATION_TYPE": "U", "NORAD_CAT_ID": 67088, "ELEMENT_SET_NO": 999, "REV_AT_EPOCH": 261, "BSTAR": -0.0069985255, "MEAN_MOTION_DOT": -0.02029893, "MEAN_MOTION_DDOT": 0.0010934707}, "tle": {"line1": "1 67088U 25298P   25356.91670139 -.02029893  10935-2 -69985-2 0  9996", "line2": "2 67088  69.9968 221.0887 0003822 268.3515  61.6026 15.89490684  2615"}}, "geometry": {"type": "Point", "coordinates": [19.804562106865838, 43.3437894476151]}}, {"type": "Feature", "properties": {"norad_id": 67089, "name": "STARLINK-35763", "group": "last-30-days", "lat": 41.3731606369568, "lon": 21.195993733672143, "alt_km": 306.1426660928455, "timestamp": "2025-12-23T07:45:08.119725+00:00", "meta": {"OBJECT_NAME": "STARLINK-35763", "OBJECT_ID": "2025-298Q", "EPOCH": "2025-12-22T22:00:03.000096", "MEAN_MOTION": 15.89475578, "ECCENTRICITY": 0.00040759, "INCLINATION": 69.9967, "RA_OF_ASC_NODE": 221.0857, "ARG_OF_PERICENTER": 271.4676, "MEAN_ANOMALY": 60.7269, "EPHEMERIS_TYPE": 0, "CLASSIFICATION_TYPE": "U", "NORAD_CAT_ID": 67089, "ELEMENT_SET_NO": 999, "REV_AT_EPOCH": 261, "BSTAR": -0.0069819269, "MEAN_MOTION_DOT": -0.02023802, "MEAN_MOTION_DDOT": 0.0010871585}, "tle": {"line1": "1 67089U 25298Q   25356.91670139 -.02023802  10872-2 -69819-2 0  9997", "line2": "2 67089  69.9967 221.0857 0004075 271.4676  60.7269 15.89475578  2610"}}, "geometry": {"type": "Point", "coordinates": [21.195993733672143, 41.3731606369568]}}]}